{
  "missions": [
    {
      "id": 1,
      "missionName": "屋台の揚げパンを探せ",
      "position": {
        "lat": 35.123484,
        "lng": 139.123361
      },
      "placeName": "屋台の揚げパン"
    },
    {
      "id": 2,
      "missionName": "ホットドッグ屋台へ行け",
      "position": {
        "lat": 35.123511,
        "lng": 139.123601
      },
      "placeName": "ホットドッグ屋台"
    },
    {
      "id": 3,
      "missionName": "唐揚げ屋台で写真を撮れ",
      "position": {
        "lat": 35.123703,
        "lng": 139.123791
      },
      "placeName": "唐揚げ屋台"
    },
    {
      "id": 4,
      "missionName": "購買で飲み物を変え",
      "position": {
        "lat": 35.123834,
        "lng": 139.123773
      },
      "placeName": "購買"
    },
    {
      "id": 5,
      "missionName": "一号館に行け",
      "position": {
        "lat": 35.12384,
        "lng": 139.123862
      },
      "placeName": "一号館"
    },
    {
      "id": 6,
      "missionName": "二号館に行け",
      "position": {
        "lat": 35.1238,
        "lng": 139.123957
      },
      "placeName": "二号館"
    },
    {
      "id": 7,
      "missionName": "三号館に行け",
      "position": {
        "lat": 35.123761,
        "lng": 139.123896
      },
      "placeName": "三号館"
    },
    {
      "id": 8,
      "missionName": "四号館に行け",
      "position": {
        "lat": 35.123886,
        "lng": 139.123965
      },
      "placeName": "四号館"
    },
    {
      "id": 9,
      "missionName": "五号館に行け",
      "position": {
        "lat": 35.1238,
        "lng": 139.123974
      },
      "placeName": "五号館"
    },
    {
      "id": 10,
      "missionName": "六号館に行け",
      "position": {
        "lat": 35.123918,
        "lng": 139.123857
      },
      "placeName": "六号館"
    }
  ]
}